STARLINK-37609          
1 69036U 26101M   26132.83335648 -.02004929  00000+0 -81713-2 0  9997
2 69036  97.2889 346.9472 0001303  98.8838 244.6605 15.88899598  2251
