{
  "norad_id": 69036,
  "name": "STARLINK-37609",
  "history": [
    {
      "epoch": "2026-05-12T20:00:01.999008Z",
      "apogee_km": 306.238409500118,
      "perigee_km": 304.4953516880596,
      "latitude_deg": -16.556777763303728,
      "longitude_deg": 178.50358423490744,
      "height_km": 312.5062283023971,
      "semi_major_axis_km": 6683.5038805940885,
      "eccentricity": 0.0001304,
      "inclination_deg": 97.2889,
      "raan_deg": 346.9472,
      "arg_perigee_deg": 98.8838,
      "mean_anomaly_deg": 244.6605,
      "mean_motion_rev_day": 15.88899598
    }
  ]
}